{
  "type": "FeatureCollection",
  "features": [
    {
      "type": "Feature",
      "properties": {
        "norad_id": 28054,
        "name": "DMSP 5D-3 F16 (USA 172)",
        "group": "weather",
        "lat": -43.80827865073329,
        "lon": 172.3030549927681,
        "alt_km": 852.2309935543681,
        "timestamp": "2025-12-09T14:52:25.807911+00:00",
        "meta_object_name": "DMSP 5D-3 F16 (USA 172)",
        "meta_object_id": "2003-048A",
        "meta_epoch": "2025-12-09T07:04:33.365568",
        "meta_mean_motion": 14.14422488,
        "meta_eccentricity": 0.00066204,
        "meta_inclination": 99.0048,
        "meta_ra_of_asc_node": 0.7247,
        "meta_arg_of_pericenter": 331.575,
        "meta_mean_anomaly": 39.3974,
        "meta_ephemeris_type": 0,
        "meta_classification_type": "U",
        "meta_norad_cat_id": 28054,
        "meta_element_set_no": 999,
        "meta_rev_at_epoch": 14264,
        "meta_bstar": 0.00015013128,
        "meta_mean_motion_dot": 2.42e-06,
        "meta_mean_motion_ddot": 0,
        "tle_line1": "1 28054U 03048A   25343.29483062  .00000242  00000+0  15013-3 0  9995",
        "tle_line2": "2 28054  99.0048   0.7247 0006620 331.5750  39.3974 14.14422488142649"
      },
      "geometry": {
        "type": "Point",
        "coordinates": [
          172.3030549927681,
          -43.80827865073329
        ]
      }
    },
    {
      "type": "Feature",
      "properties": {
        "norad_id": 28912,
        "name": "METEOSAT-9 (MSG-2)",
        "group": "weather",
        "lat": -8.317625476243062,
        "lon": -12.364435734449906,
        "alt_km": 35789.54145906691,
        "timestamp": "2025-12-09T14:52:25.807964+00:00",
        "meta_object_name": "METEOSAT-9 (MSG-2)",
        "meta_object_id": "2005-049B",
        "meta_epoch": "2025-12-08T20:40:05.248704",
        "meta_mean_motion": 1.00274262,
        "meta_eccentricity": 0.000384,
        "meta_inclination": 8.931,
        "meta_ra_of_asc_node": 56.0124,
        "meta_arg_of_pericenter": 190.0622,
        "meta_mean_anomaly": 187.4345,
        "meta_ephemeris_type": 0,
        "meta_classification_type": "U",
        "meta_norad_cat_id": 28912,
        "meta_element_set_no": 999,
        "meta_rev_at_epoch": 509,
        "meta_bstar": 0,
        "meta_mean_motion_dot": 1.23e-06,
        "meta_mean_motion_ddot": 0,
        "tle_line1": "1 28912U 05049B   25342.86117186  .00000123  00000+0  00000+0 0  9998",
        "tle_line2": "2 28912   8.9310  56.0124 0003840 190.0622 187.4345  1.00274262  5098"
      },
      "geometry": {
        "type": "Point",
        "coordinates": [
          -12.364435734449906,
          -8.317625476243062
        ]
      }
    },
    {
      "type": "Feature",
      "properties": {
        "norad_id": 29522,
        "name": "DMSP 5D-3 F17 (USA 191)",
        "group": "weather",
        "lat": 20.36882774643664,
        "lon": 172.34776491900948,
        "alt_km": 840.8210586545802,
        "timestamp": "2025-12-09T14:52:25.807983+00:00",
        "meta_object_name": "DMSP 5D-3 F17 (USA 191)",
        "meta_object_id": "2006-050A",
        "meta_epoch": "2025-12-09T07:20:02.270112",
        "meta_mean_motion": 14.14917476,
        "meta_eccentricity": 0.00092845,
        "meta_inclination": 98.7393,
        "meta_ra_of_asc_node": 348.7662,
        "meta_arg_of_pericenter": 235.4913,
        "meta_mean_anomaly": 124.5385,
        "meta_ephemeris_type": 0,
        "meta_classification_type": "U",
        "meta_norad_cat_id": 29522,
        "meta_element_set_no": 999,
        "meta_rev_at_epoch": 98556,
        "meta_bstar": 0.00018594711,
        "meta_mean_motion_dot": 3.16e-06,
        "meta_mean_motion_ddot": 0,
        "tle_line1": "1 29522U 06050A   25343.30558183  .00000316  00000+0  18595-3 0  9991",
        "tle_line2": "2 29522  98.7393 348.7662 0009284 235.4913 124.5385 14.14917476985562"
      },
      "geometry": {
        "type": "Point",
        "coordinates": [
          172.34776491900948,
          20.36882774643664
        ]
      }
    },
    {
      "type": "Feature",
      "properties": {
        "norad_id": 32958,
        "name": "FENGYUN 3A",
        "group": "weather",
        "lat": -1.8986253081662454,
        "lon": 102.92250426876501,
        "alt_km": 834.5046704956512,
        "timestamp": "2025-12-09T14:52:25.807997+00:00",
        "meta_object_name": "FENGYUN 3A",
        "meta_object_id": "2008-026A",
        "meta_epoch": "2025-12-09T07:15:10.162080",
        "meta_mean_motion": 14.19512945,
        "meta_eccentricity": 0.00080521,
        "meta_inclination": 98.6694,
        "meta_ra_of_asc_node": 282.9015,
        "meta_arg_of_pericenter": 321.2366,
        "meta_mean_anomaly": 38.8232,
        "meta_ephemeris_type": 0,
        "meta_classification_type": "U",
        "meta_norad_cat_id": 32958,
        "meta_element_set_no": 999,
        "meta_rev_at_epoch": 90846,
        "meta_bstar": 0.00013357221,
        "meta_mean_motion_dot": 2.38e-06,
        "meta_mean_motion_ddot": 0,
        "tle_line1": "1 32958U 08026A   25343.30220095  .00000238  00000+0  13357-3 0  9995",
        "tle_line2": "2 32958  98.6694 282.9015 0008052 321.2366  38.8232 14.19512945908460"
      },
      "geometry": {
        "type": "Point",
        "coordinates": [
          102.92250426876501,
          -1.8986253081662454
        ]
      }
    },
    {
      "type": "Feature",
      "properties": {
        "norad_id": 35491,
        "name": "GOES 14",
        "group": "weather",
        "lat": 1.1234656880550222,
        "lon": -166.6156114994002,
        "alt_km": 35773.895568612985,
        "timestamp": "2025-12-09T14:52:25.808011+00:00",
        "meta_object_name": "GOES 14",
        "meta_object_id": "2009-033A",
        "meta_epoch": "2025-12-09T07:25:58.798848",
        "meta_mean_motion": 1.00273188,
        "meta_eccentricity": 0.00040415,
        "meta_inclination": 1.1907,
        "meta_ra_of_asc_node": 85.4474,
        "meta_arg_of_pericenter": 154.8483,
        "meta_mean_anomaly": 201.2008,
        "meta_ephemeris_type": 0,
        "meta_classification_type": "U",
        "meta_norad_cat_id": 35491,
        "meta_element_set_no": 999,
        "meta_rev_at_epoch": 468,
        "meta_bstar": 0,
        "meta_mean_motion_dot": -6.6e-07,
        "meta_mean_motion_ddot": 0,
        "tle_line1": "1 35491U 09033A   25343.30970832 -.00000066  00000+0  00000+0 0  9997",
        "tle_line2": "2 35491   1.1907  85.4474 0004041 154.8483 201.2008  1.00273188  4687"
      },
      "geometry": {
        "type": "Point",
        "coordinates": [
          -166.6156114994002,
          1.1234656880550222
        ]
      }
    },
    {
      "type": "Feature",
      "properties": {
        "norad_id": 35951,
        "name": "DMSP 5D-3 F18 (USA 210)",
        "group": "weather",
        "lat": 27.86676159065783,
        "lon": -44.706970267362735,
        "alt_km": 835.3932656469469,
        "timestamp": "2025-12-09T14:52:25.808024+00:00",
        "meta_object_name": "DMSP 5D-3 F18 (USA 210)",
        "meta_object_id": "2009-057A",
        "meta_epoch": "2025-12-09T06:15:15.400224",
        "meta_mean_motion": 14.14766161,
        "meta_eccentricity": 0.00121059,
        "meta_inclination": 98.8831,
        "meta_ra_of_asc_node": 319.6789,
        "meta_arg_of_pericenter": 71.8313,
        "meta_mean_anomaly": 288.4177,
        "meta_ephemeris_type": 0,
        "meta_classification_type": "U",
        "meta_norad_cat_id": 35951,
        "meta_element_set_no": 999,
        "meta_rev_at_epoch": 83273,
        "meta_bstar": 0.0002654526,
        "meta_mean_motion_dot": 4.67e-06,
        "meta_mean_motion_ddot": 0,
        "tle_line1": "1 35951U 09057A   25343.26059491  .00000467  00000+0  26545-3 0  9998",
        "tle_line2": "2 35951  98.8831 319.6789 0012105  71.8313 288.4177 14.14766161832734"
      },
      "geometry": {
        "type": "Point",
        "coordinates": [
          -44.706970267362735,
          27.86676159065783
        ]
      }
    },
    {
      "type": "Feature",
      "properties": {
        "norad_id": 36411,
        "name": "EWS-G2 (GOES 15)",
        "group": "weather",
        "lat": -0.7928911624153413,
        "lon": 3.2143399133199146,
        "alt_km": 35792.95591778774,
        "timestamp": "2025-12-09T14:52:25.808037+00:00",
        "meta_object_name": "EWS-G2 (GOES 15)",
        "meta_object_id": "2010-008A",
        "meta_epoch": "2025-12-09T05:18:19.101024",
        "meta_mean_motion": 1.00268911,
        "meta_eccentricity": 0.00059383,
        "meta_inclination": 0.8053,
        "meta_ra_of_asc_node": 86.0556,
        "meta_arg_of_pericenter": 173.3341,
        "meta_mean_anomaly": 319.8428,
        "meta_ephemeris_type": 0,
        "meta_classification_type": "U",
        "meta_norad_cat_id": 36411,
        "meta_element_set_no": 999,
        "meta_rev_at_epoch": 5773,
        "meta_bstar": 0,
        "meta_mean_motion_dot": 4e-07,
        "meta_mean_motion_ddot": 0,
        "tle_line1": "1 36411U 10008A   25343.22105441  .00000040  00000+0  00000+0 0  9992",
        "tle_line2": "2 36411   0.8053  86.0556 0005938 173.3341 319.8428  1.00268911 57735"
      },
      "geometry": {
        "type": "Point",
        "coordinates": [
          3.2143399133199146,
          -0.7928911624153413
        ]
      }
    }
  ]
}